[{"OBJECT_NAME":"STARLINK-6062","OBJECT_ID":"2023-046M","EPOCH":"2026-03-09T05:42:53.104032","MEAN_MOTION":15.02533078,"ECCENTRICITY":0.00017555,"INCLINATION":43.0034,"RA_OF_ASC_NODE":161.441,"ARG_OF_PERICENTER":267.6803,"MEAN_ANOMALY":92.3838,"EPHEMERIS_TYPE":0,"CLASSIFICATION_TYPE":"U","NORAD_CAT_ID":56104,"ELEMENT_SET_NO":999,"REV_AT_EPOCH":16199,"BSTAR":-6.205985e-6,"MEAN_MOTION_DOT":-2.88e-6,"MEAN_MOTION_DDOT":0},{"OBJECT_NAME":"UNKNOWN","OBJECT_ID":"","EPOCH":"2026-03-08T11:45:51.038784","MEAN_MOTION":14.85715368,"ECCENTRICITY":0.0087365,"INCLINATION":97.6779,"RA_OF_ASC_NODE":256.4518,"ARG_OF_PERICENTER":23.5839,"MEAN_ANOMALY":6.4538,"EPHEMERIS_TYPE":0,"CLASSIFICATION_TYPE":"U","NORAD_CAT_ID":81845,"ELEMENT_SET_NO":999,"REV_AT_EPOCH":66225,"BSTAR":0.00036382,"MEAN_MOTION_DOT":3.326e-5,"MEAN_MOTION_DDOT":0}]
